ONEWEB-0388             
1 49314C 21090AM  23071.98315230 -.00004442  00000-0 -11110-1 0   719
2 49314  87.9339 182.0226 0001727 106.4533   2.3745 13.19729121    10
ONEWEB-0389             
1 50469C 21132A   23072.10329119 -.00001356  00000-0 -35034-2 0   729
2 50469  87.9092 242.6402 0002334  89.3691  39.9723 13.17545467    16
ONEWEB-0390             
1 50470C 21132B   23072.39356897  .00003346  00000-0  86477-2 0   721
2 50470  87.9095 242.5858 0002253  96.2842 318.7988 13.17504081    18
ONEWEB-0391             
1 50471C 21132C   23072.10781665 -.00001292  00000-0 -33391-2 0   723
2 50471  87.9092 242.6140 0001993  92.3797  37.9386 13.17483437    10
ONEWEB-0392             
1 50472C 21132D   23072.42657823  .00000854  00000-0  21860-2 0   726
2 50472  87.9094 242.5828 0001903  95.9640 322.6731 13.18131230    12
ONEWEB-0393             
1 50473C 21132E   23072.13873100 -.00002862  00000-0 -73446-2 0   723
2 50473  87.9089 242.6210 0001982 104.5575 342.4558 13.17993011    13
ONEWEB-0394             
1 50474C 21132F   23072.09706434 -.00000061  00000-0 -15383-3 0   720
2 50474  87.9176 212.3193 0001760  99.7543 350.8407 13.18684236    12
ONEWEB-0395             
1 50475C 21132G   23071.96682127  .00002729  00000-0  77095-2 0   715
2 50475  87.8818 257.9415 0001926  94.7694 330.4518 13.11418754    13
ONEWEB-0396             
1 50476C 21132H   23072.08662452 -.00000199  00000-0 -50451-3 0   729
2 50476  87.9119 212.3039 0001760  93.5313 337.4644 13.18685104    16
ONEWEB-0397             
1 50477C 21132J   23072.25430971  .00003373  00000-0  85663-2 0   725
2 50477  87.9168 212.3021 0001750  93.4632 343.2344 13.18678583    19
ONEWEB-0398             
1 50478C 21132K   23072.17135831 -.00002795  00000-0 -78958-2 0   722
2 50478  87.8806 257.8920 0002224 102.7042   1.2539 13.11414469    17
ONEWEB-0399             
1 50479C 21132L   23072.08176340 -.00001179  00000-0 -33309-2 0   729
2 50479  87.8802 257.9220 0001295  85.9234  18.7596 13.11413845    13
ONEWEB-0400             
1 50480C 21132M   23072.31090693  .00003070  00000-0  77954-2 0   727
2 50480  87.9249 212.2797 0001890 109.9201 335.2661 13.18686001    19
ONEWEB-0401             
1 50481C 21132N   23071.96823332 -.00002382  00000-0 -60491-2 0   716
2 50481  87.9136 212.3329 0001653 105.8145 313.5119 13.18689645    10
ONEWEB-0402             
1 50482C 21132P   23072.16716435  .00002240  00000-0  56880-2 0   724
2 50482  87.9246 212.3093 0001002 109.2094 334.0173 13.18681156    17
ONEWEB-0403             
1 50483C 21132Q   23072.19009675  .00001616  00000-0  41051-2 0   729
2 50483  87.9214 212.3144 0001640  93.3327 348.7309 13.18679310    12
ONEWEB-0404             
1 50484C 21132R   23072.07271249  .00000377  00000-0  10649-2 0   727
2 50484  87.8810 257.8836 0002155  76.4992  70.1040 13.11411766    18
ONEWEB-0405             
1 50485C 21132S   23072.29114998  .00003568  00000-0  90604-2 0   723
2 50485  87.9255 212.2472 0001225  87.6573 268.7790 13.18682834    10
ONEWEB-0406             
1 50486C 21132T   23072.18764304  .00001205  00000-0  30615-2 0   726
2 50486  87.9176 212.3029 0002035  91.2661 319.1183 13.18680610    18
ONEWEB-0407             
1 50487C 21132U   23072.18838379  .00001735  00000-0  44052-2 0   729
2 50487  87.9145 212.3490 0001583  98.9483 344.9320 13.18684010    17
ONEWEB-0409             
1 50488C 21132V   23072.21961063 -.00000302  00000-0 -85347-3 0   725
2 50488  87.8822 257.8561 0002201  86.4054  43.9472 13.11417698    19
ONEWEB-0412             
1 50489C 21132W   23072.25330277  .00003511  00000-0  89161-2 0   727
2 50489  87.9239 212.2899 0001119  85.8318 356.0347 13.18681188    18
ONEWEB-0413             
1 50490C 21132X   23072.26025879  .00003266  00000-0  82956-2 0   721
2 50490  87.9152 212.3486 0001220  97.8846 357.0697 13.18677987    10
ONEWEB-0414             
1 50491C 21132Y   23072.28696016 -.01358572  00000-0 -32933+1 0   725
2 50491  87.9399 212.3697 0001109 125.7535 147.4761 13.23200992    17
ONEWEB-0417             
1 50492C 21132Z   23072.17691388  .00002306  00000-0  58575-2 0   721
2 50492  87.9242 212.3154 0002049  98.4611 351.0242 13.18679295    15
ONEWEB-0418             
1 50493C 21132AA  23072.33280507  .00001704  00000-0  43319-2 0   728
2 50493  87.9234 212.2329 0002631  92.6755 311.6857 13.18615813    12
ONEWEB-0419             
1 50494C 21132AB  23072.12761990  .00036602  00000-0  92937-1 0   720
2 50494  87.9249 212.2899 0002172 109.7341 335.7953 13.18662284    10
ONEWEB-0420             
1 50495C 21132AC  23072.09910138  .00000005  00000-0  12681-4 0   726
2 50495  87.9245 212.3085 0001622 119.3847 350.8419 13.18684262    17
ONEWEB-0421             
1 50496C 21132AD  23072.08694860 -.00000253  00000-0 -64340-3 0   722
2 50496  87.9247 212.3183 0001333  87.7461 354.8434 13.18684344    10
ONEWEB-0424             
1 50497C 21132AE  23071.97723795 -.00002765  00000-0 -70222-2 0   714
2 50497  87.9243 212.3470 0002100 114.2110 357.9336 13.18686347    16
ONEWEB-0426             
1 50498C 21132AF  23072.16233054  .00001954  00000-0  49627-2 0   724
2 50498  87.9246 212.2924 0001733  84.8752   5.3115 13.18684480    13
ONEWEB-0427             
1 50499C 21132AG  23072.19598796  .00001366  00000-0  34684-2 0   729
2 50499  87.9243 212.3027 0002036  98.4542 341.5238 13.18681253    17
ONEWEB-0429             
1 50500C 21132AH  23072.26164767  .00003084  00000-0  78326-2 0   727
2 50500  87.9222 212.2856 0001717 106.6536 344.8121 13.18678019    19
ONEWEB-0430             
1 50501C 21132AJ  23072.10327962 -.00000016  00000-0 -41640-4 0   724
2 50501  87.9199 212.3493 0001829 115.2139 354.9188 13.18686202    18
ONEWEB-0432             
1 50502C 21132AK  23071.97587220 -.00002622  00000-0 -66576-2 0   711
2 50502  87.9246 212.3471 0001341 108.8269 326.4865 13.18690426    18
ONEWEB-0440             
1 50503C 21132AL  23072.19218008  .00001522  00000-0  38655-2 0   726
2 50503  87.9244 212.3117 0001070  86.1369 355.7354 13.18683900    19
ONEWEB-0450             
1 50504C 21132AM  23071.96680972 -.00001890  00000-0 -48006-2 0   714
2 50504  87.9244 212.3612 0001396 121.8416   0.7237 13.18690020    19
ONEWEB-0410             
1 51622C 22012A   23072.40951804  .00003064  00000-0  79442-2 0   721
2 51622  87.9126 242.6220 0002707  68.6980 349.4148 13.17287273    17
ONEWEB-0411             
1 51623C 22012B   23072.25222637 -.00000955  00000-0 -27398-2 0   721
2 51623  87.8720 273.0932 0002215  91.5912  31.7866 13.10381991    12
ONEWEB-0415             
1 51624C 22012C   23072.17376572 -.00001947  00000-0 -55836-2 0   721
2 51624  87.8763 273.0980 0002037 103.6882  24.4640 13.10381960    11
ONEWEB-0416             
1 51625C 22012D   23072.25639303 -.00000395  00000-0 -11342-2 0   725
2 51625  87.8755 273.0708 0001512  95.8841  10.4300 13.10375687    12
ONEWEB-0422             
1 51626C 22012E   23071.97864999  .00000057  00000-0  14766-3 0   711
2 51626  87.9086 242.7256 0000775 125.2757   9.5268 13.17167850    16
ONEWEB-0423             
1 51627C 22012F   23072.19875416 -.00000270  00000-0 -70115-3 0   723
2 51627  87.9067 242.6227 0001803  94.0617  34.9015 13.17254766    19
ONEWEB-0425             
1 51628C 22012G   23072.27099951 -.00000090  00000-0 -25695-3 0   728
2 51628  87.8743 273.0667 0001608  67.7685  63.2117 13.10370562    15
ONEWEB-0428             
1 51629C 22012H   23072.30814073 -.00002602  00000-0 -74641-2 0   728
2 51629  87.8760 273.0676 0001174 105.1411 289.3037 13.10378038    15
ONEWEB-0431             
1 51630C 22012J   23072.19843007 -.00001845  00000-0 -52931-2 0   722
2 51630  87.8725 273.0919 0001978 119.4337 345.4768 13.10371473    16
ONEWEB-0434             
1 51631C 22012K   23072.26928655 -.00000231  00000-0 -66287-3 0   722
2 51631  87.8747 273.0813 0001209  99.7353   8.5771 13.10370384    10
ONEWEB-0435             
1 51632C 22012L   23072.20154350 -.00002077  00000-0 -59570-2 0   726
2 51632  87.8738 273.0893 0001147 116.5729 348.3017 13.10370101    10
ONEWEB-0436             
1 51633C 22012M   23072.19528935 -.00000076  00000-0 -19634-3 0   724
2 51633  87.9126 242.6588 0001339 104.2302  28.9235 13.17318571    13
ONEWEB-0438             
1 51634C 22012N   23071.95987683  .00004032  00000-0  11566-1 0   714
2 51634  87.8747 273.1373 0001660  81.6725  44.5189 13.10370803    18
ONEWEB-0439             
1 51635C 22012P   23072.33697174  .00002098  00000-0  60182-2 0   721
2 51635  87.8725 273.0619 0001595  93.9525 355.4446 13.10367831    15
ONEWEB-0442             
1 51636C 22012Q   23072.03802499 -.00000640  00000-0 -16560-2 0   721
2 51636  87.9098 242.6863 0002624  84.0304  65.0178 13.17445529    17
ONEWEB-0443             
1 51637C 22012R   23071.97654351  .00000295  00000-0  76501-3 0   711
2 51637  87.9123 242.6912 0000882 103.9229  31.2356 13.17198340    12
ONEWEB-0444             
1 51638C 22012S   23072.25502729 -.00000487  00000-0 -13978-2 0   729
2 51638  87.8758 273.0840 0001314  95.7227  11.4340 13.10374602    14
ONEWEB-0445             
1 51639C 22012T   23072.27759674 -.00000525  00000-0 -15068-2 0   720
2 51639  87.8722 273.0931 0002217  88.3387  22.4329 13.10365030    19
ONEWEB-0446             
1 51640C 22012U   23072.31439073  .00001214  00000-0  34816-2 0   721
2 51640  87.8757 273.0684 0001873  97.5401 296.8609 13.10373571    17
ONEWEB-0448             
1 51641C 22012V   23072.25816387 -.00000318  00000-0 -91104-3 0   722
2 51641  87.8752 273.0821 0001292  91.4737  15.7975 13.10375379    18
ONEWEB-0449             
1 51642C 22012W   23072.26787451 -.00000100  00000-0 -28819-3 0   725
2 51642  87.8750 273.0784 0001702  82.2703  48.7023 13.10372404    18
ONEWEB-0451             
1 51643C 22012X   23072.04146249 -.00000854  00000-0 -22098-2 0   724
2 51643  87.9093 242.7078 0001319  91.0288  53.6679 13.17385244    14
